NORAD_CAT_ID,OBJECT_NAME,OBJECT_TYPE,EPOCH,MEAN_MOTION,ECCENTRICITY,INCLINATION,RA_OF_ASC_NODE,ARG_OF_PERICENTER,MEAN_ANOMALY,BSTAR,MEAN_MOTION_DOT,MEAN_MOTION_DDOT,TLE_LINE0,TLE_LINE1,TLE_LINE2,SEMIMAJOR_AXIS,PERIOD,APOGEE,PERIGEE,DECAYED
49143.0,STARLINK-3109,PAYLOAD,2024-04-30 14:17:01,14.98332662,0.0003098,70.0,184.1761,269.3467,90.7337,0.00018987,2.173e-05,0.0,0 STARLINK-3109,1 49143U 21082P   24121.59515925  .00002173  00000-0  18987-3 0  9994,2 49143  70.0000 184.1761 0003098 269.3467  90.7337 14.98332662146010,6950.185,96.107,574.203,569.896,0.0
49143.0,STARLINK-3109,PAYLOAD,2024-05-01 04:42:14,14.98334577,0.0003037,70.0001,182.6613,269.5026,90.5785,5.2332e-05,5.32e-06,0.0,0 STARLINK-3109,1 49143U 21082P   24122.19600024  .00000532  00000-0  52332-4 0  9996,2 49143  70.0001 182.6613 0003037 269.5026  90.5785 14.98334577144982,6950.179,96.107,574.155,569.933,0.0
49143.0,STARLINK-3109,PAYLOAD,2024-05-01 20:43:34,14.98337195,0.0003058,70.0,180.9782,269.9999,90.0809,3.1221e-05,2.8e-06,0.0,0 STARLINK-3109,1 49143U 21082P   24122.86359587  .00000280  00000-0  31221-4 0  9999,2 49143  70.0000 180.9782 0003058 269.9999  90.0809 14.98337195146203,6950.171,96.107,574.161,569.91,0.0
49143.0,STARLINK-3109,PAYLOAD,2024-05-02 04:44:15,14.9833156,0.0002905,70.0005,180.1369,272.4241,87.6585,-4.4699e-05,-6.26e-06,0.0,0 STARLINK-3109,1 49143U 21082P   24123.19740088 -.00000626  00000-0 -44699-4 0  9995,2 49143  70.0005 180.1369 0002905 272.4241  87.6585 14.98331560145134,6950.188,96.107,574.072,570.034,0.0
49143.0,STARLINK-3109,PAYLOAD,2024-05-02 12:44:55,14.98330055,0.0002903,70.0004,179.2959,269.7337,90.349,-4.8171e-05,-6.68e-06,0.0,0 STARLINK-3109,1 49143U 21082P   24123.53120113 -.00000668  00000-0 -48171-4 0  9999,2 49143  70.0004 179.2959 0002903 269.7337  90.3490 14.98330055146304,6950.193,96.107,574.075,570.04,0.0
49143.0,STARLINK-3109,PAYLOAD,2024-05-03 04:46:15,14.98339214,0.000301,69.9999,177.6123,269.2082,90.8732,7.2011e-05,7.67e-06,0.0,0 STARLINK-3109,1 49143U 21082P   24124.19879043  .00000767  00000-0  72011-4 0  9993,2 49143  69.9999 177.6123 0003010 269.2082  90.8732 14.98339214145287,6950.164,96.106,574.121,569.937,0.0
49143.0,STARLINK-3109,PAYLOAD,2024-05-03 12:46:55,14.98340959,0.0002997,69.9999,176.7704,270.3698,89.7118,8.5267e-05,9.25e-06,0.0,0 STARLINK-3109,1 49143U 21082P   24124.53258724  .00000925  00000-0  85267-4 0  9991,2 49143  69.9999 176.7704 0002997 270.3698  89.7118 14.98340959146454,6950.159,96.106,574.107,569.941,0.0
49143.0,STARLINK-3109,PAYLOAD,2024-05-03 20:47:36,14.98330411,0.0003107,69.9994,175.9285,270.5902,89.4901,0.00010931,1.211e-05,0.0,0 STARLINK-3109,1 49143U 21082P   24124.86639124  .00001211  00000-0  10931-3 0  9998,2 49143  69.9994 175.9285 0003107 270.5902  89.4901 14.98330411146503,6950.192,96.107,574.216,569.897,0.0
49143.0,STARLINK-3109,PAYLOAD,2024-05-04 04:48:17,14.98326996,0.0002613,69.9996,175.0872,272.714,87.372,7.3115e-05,7.79e-06,0.0,0 STARLINK-3109,1 49143U 21082P   24125.20019687  .00000779  00000-0  73115-4 0  9995,2 49143  69.9996 175.0872 0002613 272.7140  87.3720 14.98326996145437,6950.202,96.107,573.883,570.251,0.0
49143.0,STARLINK-3109,PAYLOAD,2024-05-04 12:48:58,14.98315976,0.0002978,69.9997,174.2454,269.782,90.2998,-7.1996e-05,-9.52e-06,0.0,0 STARLINK-3109,1 49143U 21082P   24125.53400920 -.00000952  00000-0 -71996-4 0  9995,2 49143  69.9997 174.2454 0002978 269.7820  90.2998 14.98315976145481,6950.236,96.108,574.171,570.031,0.0
49143.0,STARLINK-3109,PAYLOAD,2024-05-05 04:50:18,14.98327959,0.0002988,69.9996,172.5624,269.6958,90.3858,-6.8862e-05,-9.15e-06,0.0,0 STARLINK-3109,1 49143U 21082P   24126.20160461 -.00000915  00000-0 -68862-4 0  9990,2 49143  69.9996 172.5624 0002988 269.6958  90.3858 14.98327959145583,6950.199,96.107,574.141,569.987,0.0
49143.0,STARLINK-3109,PAYLOAD,2024-05-05 12:50:58,14.98328403,0.0002996,69.9996,171.7205,269.3698,90.7118,-6.8851e-05,-9.14e-06,0.0,0 STARLINK-3109,1 49143U 21082P   24126.53540495 -.00000914  00000-0 -68851-4 0  9992,2 49143  69.9996 171.7205 0002996 269.3698  90.7118 14.98328403146754,6950.198,96.107,574.145,569.981,0.0
49143.0,STARLINK-3109,PAYLOAD,2024-05-05 20:51:39,14.98326281,0.0003193,69.9992,170.8792,269.9907,90.0886,8.4077e-05,9.1e-06,0.0,0 STARLINK-3109,1 49143U 21082P   24126.86920260  .00000910  00000-0  84077-4 0  9992,2 49143  69.9992 170.8792 0003193 269.9907  90.0886 14.98326281146803,6950.204,96.107,574.289,569.85,0.0
49143.0,STARLINK-3109,PAYLOAD,2024-05-06 04:52:19,14.98325082,0.0003118,69.9992,170.0371,268.6741,91.4061,0.00019415,2.224e-05,0.0,0 STARLINK-3109,1 49143U 21082P   24127.20300145  .00002224  00000-0  19415-3 0  9998,2 49143  69.9992 170.0371 0003118 268.6741  91.4061 14.98325082145736,6950.208,96.107,574.24,569.906,0.0
49143.0,STARLINK-3109,PAYLOAD,2024-05-06 12:52:59,14.98331108,0.0003135,69.9992,169.1957,269.0171,91.0629,0.00021784,2.507e-05,0.0,0 STARLINK-3109,1 49143U 21082P   24127.53679870  .00002507  00000-0  21784-3 0  9994,2 49143  69.9992 169.1957 0003135 269.0171  91.0629 14.98331108146908,6950.189,96.107,574.233,569.876,0.0
49143.0,STARLINK-3109,PAYLOAD,2024-05-07 04:54:20,14.98334763,0.0003099,69.9993,167.5126,269.0207,91.0597,0.0001428,1.611e-05,0.0,0 STARLINK-3109,1 49143U 21082P   24128.20439832  .00001611  00000-0  14280-3 0  9999,2 49143  69.9993 167.5126 0003099 269.0207  91.0597 14.98334763145888,6950.178,96.107,574.197,569.889,0.0
49143.0,STARLINK-3109,PAYLOAD,2024-05-07 12:55:00,14.98337057,0.0003094,69.9992,166.671,269.1048,90.9757,0.00015733,1.785e-05,0.0,0 STARLINK-3109,1 49143U 21082P   24128.53819560  .00001785  00000-0  15733-3 0  9991,2 49143  69.9992 166.6710 0003094 269.1048  90.9757 14.98337057147051,6950.171,96.107,574.186,569.886,0.0
49143.0,STARLINK-3109,PAYLOAD,2024-05-08 04:56:20,14.98336564,0.0002996,69.9994,164.9879,269.2061,90.8755,1.3902e-05,7.3e-07,0.0,0 STARLINK-3109,1 49143U 21082P   24129.20579732  .00000073  00000-0  13902-4 0  9996,2 49143  69.9994 164.9879 0002996 269.2061  90.8755 14.98336564146032,6950.173,96.107,574.12,569.955,0.0
49143.0,STARLINK-3109,PAYLOAD,2024-05-08 11:20:53,14.98336105,0.0002957,69.9995,164.3152,267.1936,92.8884,4.159e-06,-4.3e-07,0.0,0 STARLINK-3109,1 49143U 21082P   24129.47283648 -.00000043  00000-0  41590-5 0  9996,2 49143  69.9995 164.3152 0002957 267.1936  92.8884 14.98336105147190,6950.174,96.107,574.094,569.984,0.0
49143.0,STARLINK-3109,PAYLOAD,2024-05-08 19:21:33,14.98335227,0.0002964,69.9995,163.4735,268.0712,92.0108,-2.2306e-06,-1.2e-06,0.0,0 STARLINK-3109,1 49143U 21082P   24129.80663549 -.00000120  00000-0 -22306-5 0  9996,2 49143  69.9995 163.4735 0002964 268.0712  92.0108 14.98335227147248,6950.177,96.107,574.102,569.982,0.0
49143.0,STARLINK-3109,PAYLOAD,2024-05-09 04:58:21,14.98336004,0.0002984,69.9994,162.4633,269.2795,90.8022,-8.579e-06,-1.95e-06,0.0,0 STARLINK-3109,1 49143U 21082P   24130.20719416 -.00000195  00000-0 -85790-5 0  9995,2 49143  69.9994 162.4633 0002984 269.2795  90.8022 14.98336004146186,6950.174,96.107,574.113,569.965,0.0
49143.0,STARLINK-3109,PAYLOAD,2024-05-09 11:22:53,14.98334761,0.0003015,69.9994,161.79,269.0968,90.9846,-2.39e-05,-3.78e-06,0.0,0 STARLINK-3109,1 49143U 21082P   24130.47423424 -.00000378  00000-0 -23900-4 0  9992,2 49143  69.9994 161.7900 0003015 269.0968  90.9846 14.98334761147343,6950.178,96.107,574.139,569.948,0.0
49143.0,STARLINK-3109,PAYLOAD,2024-05-10 11:24:54,14.98330938,0.0003064,69.9993,159.265,269.2011,90.8797,4.3024e-05,4.2e-06,0.0,0 STARLINK-3109,1 49143U 21082P   24131.47563469  .00000420  00000-0  43024-4 0  9992,2 49143  69.9993 159.2650 0003064 269.2011  90.8797 14.98330938146379,6950.19,96.107,574.185,569.925,0.0
49143.0,STARLINK-3109,PAYLOAD,2024-05-10 19:25:34,14.98333605,0.0003143,69.9991,158.4233,270.1575,89.9223,5.3589e-05,5.46e-06,0.0,0 STARLINK-3109,1 49143U 21082P   24131.80943223  .00000546  00000-0  53589-4 0  9995,2 49143  69.9991 158.4233 0003143 270.1575  89.9223 14.98333605147546,6950.182,96.107,574.231,569.862,0.0
49143.0,STARLINK-3109,PAYLOAD,2024-05-11 11:26:53,14.98357943,0.0003114,69.9989,156.7396,268.7139,91.3663,0.00036229,4.236e-05,0.0,0 STARLINK-3109,1 49143U 21082P   24132.47701102  .00004236  00000-0  36229-3 0  9998,2 49143  69.9989 156.7396 0003114 268.7139  91.3663 14.98357943146524,6950.106,96.105,574.136,569.807,0.0
49143.0,STARLINK-3109,PAYLOAD,2024-05-11 19:27:35,14.98343657,0.0002104,70.0034,155.9013,304.8116,55.2845,0.00031165,3.629e-05,0.0,0 STARLINK-3109,1 49143U 21082P   24132.81082846  .00003629  00000-0  31165-3 0  9992,2 49143  70.0034 155.9013 0002104 304.8116  55.2845 14.98343657146573,6950.151,96.106,573.478,570.553,0.0
49143.0,STARLINK-3109,PAYLOAD,2024-05-12 05:04:24,14.98319503,0.0003179,69.9999,154.8878,273.688,86.3916,-0.00042359,-5.142e-05,0.0,0 STARLINK-3109,1 49143U 21082P   24133.21139159 -.00005142  00000-0 -42359-3 0  9998,2 49143  69.9999 154.8878 0003179 273.6880  86.3916 14.98319503146635,6950.225,96.108,574.3,569.881,0.0
49143.0,STARLINK-3109,PAYLOAD,2024-05-12 11:28:57,14.98295302,0.0002853,70.0004,154.2153,275.6838,84.3996,-0.0013049,-0.00015614,0.0,0 STARLINK-3109,1 49143U 21082P   24133.47843819 -.00015614  00000-0 -13049-2 0  9999,2 49143  70.0004 154.2153 0002853 275.6838  84.3996 14.98295302146678,6950.3,96.109,574.148,570.182,0.0
49143.0,STARLINK-3109,PAYLOAD,2024-05-13 11:31:00,14.98317557,0.0002994,70.001,151.6909,274.8602,85.2216,0.0016392,0.00019514,0.0,0 STARLINK-3109,1 49143U 21082P   24134.47986209  .00019514  00000-0  16392-2 0  9996,2 49143  70.0010 151.6909 0002994 274.8602  85.2216 14.98317557146820,6950.231,96.108,574.177,570.015,0.0
49143.0,STARLINK-3109,PAYLOAD,2024-05-13 17:55:32,14.98323373,0.0003028,70.0011,151.0179,270.938,89.1432,0.0013625,0.00016199,0.0,0 STARLINK-3109,1 49143U 21082P   24134.74690190  .00016199  00000-0  13625-2 0  9999,2 49143  70.0011 151.0179 0003028 270.9380  89.1432 14.98323373147987,6950.213,96.107,574.183,569.974,0.0
